#dP2022 12  3  0  0  0.00000000      96 __u+U ITR14 FIT  IAC
## 2238 518400.00000000   900.00000000 59916 0.0000000000000
+  126   C01C03C04C05C06C07C08C09C10C11C12C13C14C16C19C20C21
+        C22C23C24C25C26C27C28C29C30C32C33C34C35C36C37C38C39
+        C40C41C42C43C44C45C46C60E01E02E03E04E05E07E09E10E11
+        E12E13E14E15E18E19E21E24E25E26E27E30E31E33E34E36G01
+        G02G03G04G05G06G07G08G09G10G11G12G13G14G15G16G17G18
+        G19G20G21G22G23G24G25G26G27G29G30G31G32J02J03J04J07
+        R01R02R03R04R05R06R07R08R09R10R11R12R13R14R15R17R18
+        R19R20R21R22R23R24R25  0  0  0  0  0  0  0  0  0  0
++        17 17 17 17  9  9 10  9  9  9  9  9  9  9  7  7  7
++         7  7  7  7  7  7  7  7  7  7  7  7  7  7  7  8  8
++         8  7  7  8  7  7  7 17  4  4  4  4  4  4  4  4  4
++         4  5  5  4  4  4  4  4  4  4  5  4  4  4  4  4  4
++         4  4  4  4  4  4  3  4  4  4  4  3  4  4  4  4  4
++         4  4  4  4  4  4  4  4  4  4  4  4  3  8  8  8 17
++         7  6  6  6  6 15  6  6  6 15  6  6  9  6  6  6  6
++         7  8  6  8 15  6  8  0  0  0  0  0  0  0  0  0  0
%c M  cc GPS ccc cccc cccc cccc cccc ccccc ccccc ccccc ccccc
%c cc cc ccc ccc cccc cccc cccc cccc ccccc ccccc ccccc ccccc
%f  0.0000000  0.000000000  0.00000000000  0.000000000000000
%f  0.0000000  0.000000000  0.00000000000  0.000000000000000
%i    0    0    0    0      0      0      0      0         0
%i    0    0    0    0      0      0      0      0         0
/* INFORMATION & ANALYSIS CENTER (IAC)            RAPID DATA
/* S/V CLOCKS ARE ALIGNED TO GNSS TIME                      
/* G:C1WC2W R:C1PC2P E:C1XC5X C:C2IC6I J:C1CC2S             
/* PCV:IGS14_2233 OL/AL:FES2004  NONE     YN ORB:CoN CLK:CoN
*  2022 12 03  4 30  0.00000000
PC01 -34365.470817  24413.570444   -384.344197    933.185840
PC03 -14795.967222  39518.342508    -22.663990   -103.685442
PC04 -39631.115079  14377.034787   -596.699763    -61.883901
PC05  21873.398608  36074.225305   1130.209331    -26.122600
PC06   -849.246300  27630.591455  31907.609249    224.914735
PC07 -16850.934487  32002.626753 -21753.825224    129.287018
PC08  -7298.726991  40457.400955  -8922.874436    519.073948
PC09   6443.483122  30869.298348  28606.462166   -792.108825
PC10  -9563.940466  31757.349199 -26001.447712     58.185952
PC11 -18423.733819   5158.809862 -20250.735639   -257.738399
PC12 -25691.534848  -8673.407624  -6580.385913    328.379592
PC13  -1929.565526  41937.056150  -1117.965137    148.603263
PC14 -23162.397860  15607.509575    388.785668    230.352161
PC16  -6334.204651  24499.551993  33950.129886    107.897331
PC19  17606.168228 -19419.268536  -9540.311500   -907.390198
PC20  24839.325954 -10434.535210   7239.100691    818.509210
PC21 -17626.908601  -5543.215953 -20906.512142   -931.026524
PC22   -162.805859 -17615.635115 -21645.066559   -760.728180
PC23   3402.987361  27565.290536  -2648.039452   -873.299646
PC24 -16096.550367   3141.738858  22561.903468   -725.791268
PC25  -7906.365287  23082.604399  13511.836695     33.753257
PC26 -14358.229282 -15469.826322  18259.379029    -44.461526
PC27  24080.921880  13991.790224  -1867.489233     60.492398
PC28  11288.444595  19104.081025 -16910.968958     42.888451
PC29   9058.564350 -13288.601516  22804.245962     48.619445
PC30  24066.415158    476.251985  14133.422055      1.130434
PC32  17591.771467   5517.081264  20956.888225   -696.056914
PC33 -17561.234577  19524.452020   9452.349899   -900.313677
PC34 -23504.358047    473.734185 -15026.830481     52.669743
PC35 -10299.624008 -18745.075413  17903.449376    115.759712
PC36   8796.135806 -22483.849318 -13986.799418   -795.818802
PC37  13520.614392  17015.514529 -17479.009731   -896.405960
PC38 -11339.115112  37396.962260 -15584.582303     42.322334
PC39  -9790.338781  22205.671546  34506.466438     -0.986702
PC40 -24975.165589  26708.782102 -21178.014952     -9.375059
PC41   -350.325434  17906.199155  21445.630299   -339.458746
PC42 -24843.638259   9611.997269  -8301.481338   -778.188254
PC43  -9924.473992  12935.891079 -22649.778511     28.139773
PC44 -24481.610034 -13203.776665   2034.404922    132.998195
PC45  -3623.593999 -27520.270617   3019.489805    -29.932256
PC46  15715.961916  -5329.605374 -22444.462392    -17.028948
PC60   7297.177108  41507.798838   -926.841636     -0.765994
PE01  19571.465460 -17943.491314 -13094.116324   -574.838133
PE02 -19508.382599  18141.538884  12878.006736      6.258789
PE03 -25024.556202   9833.433875  12376.500445   -625.994850
PE04   6944.385044 -16786.014638 -23372.822774     -5.872101
PE05 -28790.867618  -3063.319659  -6149.445075   -118.786622
PE07  15729.449605  13979.649986  20812.296285     -4.129660
PE09 -15555.148464 -13902.486685 -21006.221549   -750.491073
PE10  -9272.226845 -26260.434434  10043.999394   -495.091730
PE11 -16182.325644 -24777.831877   -401.928258   1042.100944
PE12  -1341.003405 -23560.774251  17865.102103   -310.526171
PE13  15740.830304  25062.131499   -513.916898    430.476669
PE14 -29507.169625  -4780.899960   2504.550253     73.769184
PE15   1203.226529  23386.980937 -18092.691492    703.475636
PE18  20861.464112  12131.313064 -11783.127469   -672.887591
PE19  26578.873443  -8177.039086 -10157.273035  -3841.529038
PE21  18006.427986    208.454620 -23493.935756   -498.133358
PE24  -5316.315592 -20418.353745  20760.618814   -980.690694
PE25 -17885.205806   -570.617740  23583.105602   -594.068155
PE26  20909.671415  11192.038491  17715.214881  -1892.631271
PE27   6108.683229  19648.495063 -21269.135446   -454.025133
PE30  -9881.614295  27272.792832  -5846.765579  -1047.195385
PE31   9269.348575 -27345.018435   6553.090592   -509.688898
PE33  13954.710915  -7918.162838  24883.431853   -455.662659
PE34 -13839.117261   8103.654281 -24879.260291    -17.675038
PE36 -20890.719912 -12041.892625 -17159.877306   -469.732515
PG01  17288.108328   6325.990786  18966.201818    243.063470
PG02 -17130.611341  -1732.347773 -19534.813523   -634.976157
PG03  17764.745952  -4067.754621  19160.717867   -374.947666
PG04  26557.064428    555.291765  -1732.848176    -75.621579
PG05 -11821.545029  -9871.753087 -21801.392683   -106.610340
PG06  -4247.483797 -23752.528013  11075.063279    532.077088
PG07  11910.613067  -9801.048868 -21157.971448    279.677211
PG08  24172.919091   6702.497456  -9324.117554    -96.774762
PG09  22156.975201  -8358.368415 -12155.671110   -259.488047
PG10 -10505.523001  23681.826301   5188.016885    -14.442925
PG11 -11972.163760 -23705.987770  -1107.575825    -49.916228
PG12 -17838.765523   2013.350507  19269.076463   -311.400523
PG13 -18268.837311 -13157.693855 -14414.802733    435.300340
PG14  12884.945263 -22969.849288   2910.027145    -74.261170
PG15 -24735.609025  -4507.971387  -9431.764115     -7.331285
PG16   7342.709276  14530.622182 -21180.223457   -526.586912
PG17  10726.355157 -13168.264194  20883.723733    682.856444
PG18 -10043.363334  12230.313698 -21305.947764    -44.535051
PG19  -2199.565890 -15060.572569  21564.303573    245.418704
PG20  -3918.541812 -20856.214548 -16089.075942    466.087995
PG21  19672.344065  13117.259729  13439.530594    154.726345
PG22   5405.225345  15573.164482  21284.576318    376.890336
PG23 -16357.352054  19945.440350  -6014.565137     -0.475182
PG24 -19534.370413  -9174.836525  15409.579546     32.922173
PG25 -18739.526814  12880.608272  13188.948506    398.433083
PG26   -380.253708  22467.486864 -13992.902668    237.466129
PG27  15464.932155  12718.040615 -17872.146511    163.258564
PG29 -23894.923313   4685.647156 -10744.153543   -571.399244
PG30   3158.170272 -20359.424422 -16531.541159   -535.990623
PG31   4882.901480  24113.733639   9221.614285   -202.086784
PG32  -6653.985866  14731.514948  21193.647834   -316.518207
PJ02 -32690.060187  25683.860028  12296.667721     -0.239064
PJ03 -23092.569506  18799.927578 -25213.153768     -5.844824
PJ04 -26734.413726  32846.107992   5398.827252    114.232174
PJ07 -25405.494093  33643.114456     31.884140      0.035580
PR01 -20594.205510  13120.187482   7382.307495     18.894961
PR02  -5188.219064  12970.663806  21362.243110    -23.405878
PR03  12706.769310   5670.052872  21432.817903     68.372272
PR04  23141.439760  -4628.183826   9727.403198    167.145933
PR05  21110.706673 -12328.449349  -7330.740974    103.912931
PR06   3660.923100 -13039.519575 -21636.699440    -83.344701
PR07 -13291.633428  -5253.100834 -21080.130534     45.400961
PR08 -23151.100084   4819.233502  -9465.660860    -68.399491
PR09   1358.199904 -25313.220046   2480.941926     90.913424
PR10  -5965.440853 -18457.325770  16600.222688    -88.345151
PR11 -10965.718853   -112.977396  23039.323688     17.347407
PR12  -9297.846030  18737.845433  14606.734745     23.335697
PR13  -2372.484331  25381.597669   -843.643176    -29.546320
PR14   6667.717839  17082.813507 -17728.149173     24.072829
PR15  11181.737363   -926.365346 -22890.896160     92.586149
PR17  18920.310881  16670.958801  -3678.051980    583.520410
PR18  20359.546692   8680.849770  12744.475346     54.941028
PR19  12295.607493  -2611.037788  22201.098223   -213.159992
PR20  -5561.748163 -15755.842730  19273.899294    -83.252001
PR21 -19487.640559 -16357.305776   2047.716609   -354.478090
PR22 -19955.637034  -8726.248397 -13237.743458     19.644794
PR23  -8208.938333   6718.083477 -23198.040166    -64.215227
PR24   6409.199410  16125.763490 -18664.679715    130.319167
PR25 -17877.217695 -17745.361660   4108.599792     47.898565
EOF
